[{"OBJECT_NAME":"NESS","OBJECT_ID":"2023-155E","EPOCH":"2026-03-09T18:20:54.923712","MEAN_MOTION":15.26794015,"ECCENTRICITY":0.00068914,"INCLINATION":97.5941,"RA_OF_ASC_NODE":152.6141,"ARG_OF_PERICENTER":179.8776,"MEAN_ANOMALY":180.2465,"EPHEMERIS_TYPE":0,"CLASSIFICATION_TYPE":"U","NORAD_CAT_ID":58020,"ELEMENT_SET_NO":999,"REV_AT_EPOCH":13330,"BSTAR":0.00074047066,"MEAN_MOTION_DOT":0.00019469,"MEAN_MOTION_DDOT":0},{"OBJECT_NAME":"STARLINK-33899","OBJECT_ID":"2025-091AA","EPOCH":"2026-03-09T22:56:04.632288","MEAN_MOTION":15.27585187,"ECCENTRICITY":0.00015557,"INCLINATION":43.0021,"RA_OF_ASC_NODE":50.9499,"ARG_OF_PERICENTER":259.7433,"MEAN_ANOMALY":100.3243,"EPHEMERIS_TYPE":0,"CLASSIFICATION_TYPE":"U","NORAD_CAT_ID":63799,"ELEMENT_SET_NO":999,"REV_AT_EPOCH":4905,"BSTAR":0.0012813296,"MEAN_MOTION_DOT":0.00035171,"MEAN_MOTION_DDOT":0}]
